{"type":"Feature","properties":{"osm_relation_id":8593081,"name":"Байқоңыр ауданы","admin_level":"6","source":"OpenStreetMap via Overpass","bbox":[51.1475427,71.2980936,51.3511101,71.7063332]},"geometry":{"type":"MultiPolygon","coordinates":[[[[71.4464047,51.1843503],[71.4448769,51.1824566],[71.4443758,51.1819483],[71.4435583,51.181225],[71.4431034,51.180882],[71.4424111,51.1804273],[71.4415408,51.1799396],[71.4406902,51.1795552],[71.4397804,51.1792411],[71.4386134,51.1789311],[71.4368266,51.1786253],[71.436409,51.178585],[71.4240578,51.1772034],[71.4240743,51.1771448],[71.4241182,51.1769569],[71.4242488,51.1766034],[71.4244031,51.1759744],[71.4244595,51.1757737],[71.427537,51.1648192],[71.429658,51.1572681],[71.4297757,51.1568602],[71.430076,51.1557793],[71.4302164,51.1553311],[71.4302993,51.155159],[71.4303968,51.155012],[71.4306573,51.1547232],[71.4309285,51.154477],[71.4312247,51.1542778],[71.4314606,51.1541774],[71.4282315,51.151901],[71.428229,51.1518972],[71.4284929,51.1517003],[71.4293414,51.1510205],[71.4310581,51.1502667],[71.4331609,51.1500514],[71.4358646,51.1495937],[71.4378387,51.1483554],[71.4380103,51.1477362],[71.438473,51.1475427],[71.4407553,51.1484569],[71.4431371,51.1494193],[71.4442744,51.1500384],[71.4456906,51.1508393],[71.4476325,51.1519363],[71.4504006,51.1527707],[71.4516236,51.1530467],[71.4523854,51.153114],[71.4531364,51.1533226],[71.4536192,51.153659],[71.4536514,51.153935],[71.4546814,51.1542378],[71.4549925,51.1546012],[71.4595844,51.1555096],[71.4653995,51.1581609],[71.4671053,51.1590221],[71.4689185,51.159954],[71.4696453,51.1603735],[71.4698633,51.1606266],[71.4698791,51.1606449],[71.469911,51.160682],[71.470001,51.1607866],[71.4701898,51.1609337],[71.470359,51.1610423],[71.4719151,51.1616043],[71.4724674,51.1620835],[71.4727209,51.1624364],[71.4728738,51.1627087],[71.4731238,51.1630659],[71.4740165,51.1636562],[71.4745202,51.1637891],[71.4750342,51.163861],[71.4758748,51.163898],[71.476698,51.1639829],[71.4774517,51.1640984],[71.4776428,51.1641376],[71.4777505,51.1642138],[71.4778408,51.1643075],[71.4780315,51.1646173],[71.4781852,51.1648001],[71.4789778,51.1657966],[71.4796506,51.1666971],[71.4804231,51.1674775],[71.4808599,51.1677968],[71.4815701,51.168118],[71.4821393,51.1683424],[71.482746,51.1683558],[71.4837798,51.1682354],[71.484194,51.1682949],[71.4853429,51.1688799],[71.4861703,51.1695694],[71.4863755,51.1697996],[71.4879086,51.1710813],[71.4883215,51.171319],[71.4895564,51.1720299],[71.4902522,51.1722153],[71.4907441,51.1724339],[71.4916449,51.1726575],[71.4920929,51.1739335],[71.4929726,51.1747675],[71.4946034,51.1756151],[71.4954188,51.1758303],[71.497114,51.1758572],[71.4977602,51.17577],[71.4980847,51.1763567],[71.4994204,51.1778042],[71.5024631,51.1809781],[71.5043955,51.1829916],[71.5048948,51.1835424],[71.505044,51.1835412],[71.5061911,51.1832136],[71.5062346,51.1832023],[71.5068188,51.1830505],[71.5070012,51.1830135],[71.5075642,51.182911],[71.5077683,51.1828739],[71.5080392,51.1828403],[71.50875,51.1827579],[71.5090879,51.182726],[71.509513,51.182699],[71.5097504,51.182684],[71.5107187,51.1826907],[71.5115958,51.1826487],[71.512269,51.1825713],[71.5145108,51.1821797],[71.5151658,51.1820081],[71.5160295,51.1817206],[71.5198559,51.1802686],[71.5208333,51.1798979],[71.521674,51.1795027],[71.5226154,51.1789793],[71.5239603,51.1782423],[71.5248373,51.1786687],[71.5253406,51.1789965],[71.5271118,51.1792337],[71.5283778,51.1791126],[71.5298369,51.1795565],[71.5310385,51.1800408],[71.5313819,51.1803636],[71.5333989,51.1807268],[71.5337637,51.1811976],[71.5332916,51.1822736],[71.5333774,51.1829058],[71.5339139,51.1834707],[71.5352013,51.183807],[71.5367248,51.1845064],[71.5377333,51.1852999],[71.5384414,51.1859724],[71.5395572,51.1873846],[71.5409734,51.188595],[71.5425184,51.1889447],[71.544471,51.1890657],[71.5460804,51.1896574],[71.547797,51.190034],[71.5492346,51.1900878],[71.550093,51.1896978],[71.5521958,51.1898054],[71.5539768,51.1901954],[71.5570369,51.1908401],[71.5578845,51.1913309],[71.5580213,51.1920596],[71.55918,51.1927925],[71.5602744,51.1932027],[71.5610576,51.1936061],[71.5618622,51.1946079],[71.5626132,51.1949239],[71.5629458,51.1952802],[71.5635681,51.1954282],[71.5686321,51.1967325],[71.5720653,51.1988502],[71.5746939,51.1999595],[71.5758204,51.2006183],[71.5775049,51.2012704],[71.5800261,51.2027628],[71.5817803,51.2030753],[71.5829456,51.2032895],[71.5774802,51.2138235],[71.574053,51.2203837],[71.5805595,51.2244854],[71.5960945,51.2342919],[71.6061428,51.2406275],[71.6186341,51.2485125],[71.6175261,51.2498706],[71.6163878,51.2512536],[71.6113972,51.257332],[71.6091456,51.2600937],[71.6083382,51.2610664],[71.607036,51.2626575],[71.6061951,51.2636814],[71.6054012,51.2646447],[71.6048098,51.2653714],[71.604162,51.2661174],[71.6019224,51.2685165],[71.5940045,51.277498],[71.5896821,51.2739425],[71.584252,51.2694831],[71.5764722,51.2630847],[71.5669799,51.2574786],[71.5661725,51.2528077],[71.5625837,51.2487499],[71.5583043,51.2485224],[71.5556757,51.2470198],[71.5536118,51.245298],[71.5510556,51.2431463],[71.545824,51.2444753],[71.5274468,51.2491403],[71.5056565,51.2546711],[71.5031379,51.2553081],[71.4716703,51.2632895],[71.4724226,51.2638593],[71.4738522,51.2649451],[71.4790007,51.2688513],[71.4809319,51.2703171],[71.4856214,51.2739615],[71.4888122,51.2764289],[71.4982307,51.2836902],[71.4983851,51.2900534],[71.4908788,51.2886239],[71.4773475,51.2866283],[71.4759015,51.2864099],[71.4685522,51.2784611],[71.4503816,51.2715883],[71.4281192,51.2746716],[71.4137748,51.2709422],[71.4000459,51.2673451],[71.3970539,51.27418],[71.3906555,51.288802],[71.3895611,51.2910925],[71.3888316,51.2926189],[71.3851088,51.3023429],[71.3556138,51.2977218],[71.3557358,51.2973922],[71.3561824,51.2961989],[71.3572338,51.2933519],[71.3587882,51.2891878],[71.3590537,51.288506],[71.3610305,51.2837778],[71.3627538,51.2793873],[71.3641539,51.2759217],[71.3643993,51.2754158],[71.3655044,51.2731094],[71.3664137,51.2712199],[71.3637502,51.2706947],[71.3604592,51.2700453],[71.3564868,51.2692582],[71.3510714,51.2681917],[71.3466927,51.2673291],[71.345939,51.2685114],[71.3421249,51.2671126],[71.3408321,51.268733],[71.3384342,51.2678938],[71.3349098,51.2666578],[71.334258,51.2660864],[71.3339402,51.2658187],[71.3328016,51.2648218],[71.3313612,51.2635731],[71.3297653,51.2621851],[71.3273889,51.2601214],[71.3243271,51.257419],[71.3213378,51.2547827],[71.319931,51.2535472],[71.3190271,51.2527296],[71.3178013,51.2514722],[71.3168411,51.2504901],[71.3156167,51.2492335],[71.3151057,51.2487046],[71.3137887,51.247348],[71.3114539,51.2449437],[71.3092384,51.2425963],[71.3054806,51.2386217],[71.3040242,51.2370767],[71.3038941,51.2368769],[71.3032624,51.2358777],[71.303523,51.2357933],[71.3261989,51.2284526],[71.3533894,51.2198832],[71.3543779,51.2195007],[71.3552781,51.2191085],[71.3561213,51.2186711],[71.3583062,51.216959],[71.3586467,51.2166285],[71.3596747,51.2156333],[71.3610105,51.2140052],[71.3623858,51.21248],[71.3632603,51.2116575],[71.3644692,51.2107971],[71.3671955,51.2094643],[71.3696269,51.2086624],[71.3728964,51.207612],[71.3757888,51.2067136],[71.4257274,51.1907706],[71.4368893,51.1873892],[71.4464047,51.1843503]]],[[[71.3362248,51.2717005],[71.3092516,51.2638485],[71.2980936,51.272763],[71.3078783,51.2777028],[71.3061189,51.2909625],[71.3201952,51.2953906],[71.3362248,51.2717005]]],[[[71.6579553,51.3171883],[71.6513113,51.3215171],[71.6445262,51.3283709],[71.6415258,51.3316656],[71.6678132,51.3398842],[71.6838682,51.3509429],[71.6950979,51.3511101],[71.6927107,51.3488787],[71.697736,51.3465872],[71.7011348,51.349766],[71.7063332,51.3476043],[71.7039107,51.3428285],[71.6999211,51.3388761],[71.6990471,51.3378711],[71.6973656,51.3353448],[71.6941792,51.3335279],[71.6938307,51.3337089],[71.6866021,51.3288876],[71.6842449,51.3256499],[71.6787604,51.3217359],[71.672494,51.3174535],[71.6716,51.3165612],[71.6733166,51.3156608],[71.6707503,51.3139846],[71.6704181,51.3137676],[71.6742334,51.3111448],[71.6718742,51.3094308],[71.6703576,51.3103754],[71.6677369,51.3121944],[71.6665497,51.3130184],[71.6580344,51.3171614],[71.6579553,51.3171883]]]]}}