{"type":"Feature","properties":{"name":"Жастар","source":"OpenStreetMap residential landuse catchment","method":"convex hull of residential landuse polygons assigned to a named OSM place","residential_buildings":119,"anchor_ids":["way/1168522107"],"residential_landuse_ids":[258129235,1071933340,1071933341,1071933342,1168522107,1331594165,1331594167,1336833003]},"geometry":{"type":"Polygon","coordinates":[[[71.4343204,51.1672642],[71.4349138,51.1551135],[71.4380788,51.1526775],[71.4388513,51.1522266],[71.4442217,51.1522744],[71.4652061,51.1946281],[71.464616,51.1999124],[71.4629853,51.2014654],[71.4610112,51.202662],[71.4582217,51.2038854],[71.4562261,51.2031392],[71.4559257,51.2028704],[71.4343204,51.1672642]]]}}